[{"OBJECT_NAME":"STARLINK-32482","OBJECT_ID":"2024-224C","EPOCH":"2026-03-09T07:21:26.324352","MEAN_MOTION":15.27584526,"ECCENTRICITY":9.793e-5,"INCLINATION":43.0011,"RA_OF_ASC_NODE":160.0831,"ARG_OF_PERICENTER":256.7047,"MEAN_ANOMALY":103.3695,"EPHEMERIS_TYPE":0,"CLASSIFICATION_TYPE":"U","NORAD_CAT_ID":62141,"ELEMENT_SET_NO":999,"REV_AT_EPOCH":7226,"BSTAR":0.00057018125,"MEAN_MOTION_DOT":0.00015463,"MEAN_MOTION_DDOT":0},{"OBJECT_NAME":"OBJECT A","OBJECT_ID":"2025-234A","EPOCH":"2026-03-09T23:03:34.210368","MEAN_MOTION":15.32505956,"ECCENTRICITY":0.00130678,"INCLINATION":97.4388,"RA_OF_ASC_NODE":139.352,"ARG_OF_PERICENTER":148.634,"MEAN_ANOMALY":211.5684,"EPHEMERIS_TYPE":0,"CLASSIFICATION_TYPE":"U","NORAD_CAT_ID":66053,"ELEMENT_SET_NO":999,"REV_AT_EPOCH":2164,"BSTAR":0.0014840662,"MEAN_MOTION_DOT":0.00046856,"MEAN_MOTION_DDOT":0}]
